STARLINK-32841          
1 62865U 25022M   26068.45233147  .00034344  00000+0  11668-2 0  9990
2 62865  53.1577 130.7280 0001346  81.5163 278.5991 15.30186569 61851
TEVEL2-4                
1 63213U 25052D   26068.69417973  .00020990  00000+0  70363-3 0  9998
2 63213  97.4009 325.1237 0004733  95.3468 264.8313 15.30925813 54879
